STARLINK-31651          
1 59860U 24098C   26068.01851422  .00003644  00000+0  14194-3 0  9994
2 59860  42.9980 281.7759 0000876 256.3852 103.6902 15.27560792101741
YAOGAN-43 01D           
1 60461U 24148D   26068.43560480  .00010676  00000+0  37766-3 0  9999
2 60461  35.0010  61.7102 0002556 326.2473  33.8080 15.28369377 87008
